{
  "type": "FeatureCollection",
  "features": [
    {
      "type": "Feature",
      "properties": {
        "OBJECT_NAME": "GOES 17",
        "OBJECT_ID": "2018-022A",
        "EPOCH": "2025-11-29T23:43:13.047744",
        "MEAN_MOTION": 1.0027056,
        "ECCENTRICITY": 0.0003306,
        "INCLINATION": 0.4235,
        "RA_OF_ASC_NODE": 89.4184,
        "ARG_OF_PERICENTER": 179.9649,
        "MEAN_ANOMALY": 66.0576,
        "EPHEMERIS_TYPE": 0,
        "CLASSIFICATION_TYPE": "U",
        "NORAD_CAT_ID": 43226,
        "ELEMENT_SET_NO": 999,
        "REV_AT_EPOCH": 2842,
        "BSTAR": 0,
        "MEAN_MOTION_DOT": -1.61e-06,
        "MEAN_MOTION_DDOT": 0,
        "norad_id": 43226,
        "name": "GOES 17",
        "group": "weather",
        "longitude_deg": NaN,
        "latitude_deg": NaN,
        "alt_km": NaN,
        "orbit_class": "HEO",
        "timestamp": "2025-11-30T09:33:02.507634+00:00"
      },
      "geometry": {
        "type": "Point",
        "coordinates": [
          NaN,
          NaN
        ]
      }
    },
    {
      "type": "Feature",
      "properties": {
        "OBJECT_NAME": "FENGYUN 2H",
        "OBJECT_ID": "2018-050A",
        "EPOCH": "2025-11-30T00:31:23.435328",
        "MEAN_MOTION": 1.0027197,
        "ECCENTRICITY": 0.0002741,
        "INCLINATION": 2.515,
        "RA_OF_ASC_NODE": 81.4715,
        "ARG_OF_PERICENTER": 159.6951,
        "MEAN_ANOMALY": 275.2002,
        "EPHEMERIS_TYPE": 0,
        "CLASSIFICATION_TYPE": "U",
        "NORAD_CAT_ID": 43491,
        "ELEMENT_SET_NO": 999,
        "REV_AT_EPOCH": 2744,
        "BSTAR": 0,
        "MEAN_MOTION_DOT": -1.08e-06,
        "MEAN_MOTION_DDOT": 0,
        "norad_id": 43491,
        "name": "FENGYUN 2H",
        "group": "weather",
        "longitude_deg": NaN,
        "latitude_deg": NaN,
        "alt_km": NaN,
        "orbit_class": "HEO",
        "timestamp": "2025-11-30T09:33:02.507959+00:00"
      },
      "geometry": {
        "type": "Point",
        "coordinates": [
          NaN,
          NaN
        ]
      }
    },
    {
      "type": "Feature",
      "properties": {
        "OBJECT_NAME": "METOP-C",
        "OBJECT_ID": "2018-087A",
        "EPOCH": "2025-11-30T03:38:44.308608",
        "MEAN_MOTION": 14.2150439,
        "ECCENTRICITY": 0.0001814,
        "INCLINATION": 98.6948,
        "RA_OF_ASC_NODE": 32.1132,
        "ARG_OF_PERICENTER": 62.5735,
        "MEAN_ANOMALY": 297.5627,
        "EPHEMERIS_TYPE": 0,
        "CLASSIFICATION_TYPE": "U",
        "NORAD_CAT_ID": 43689,
        "ELEMENT_SET_NO": 999,
        "REV_AT_EPOCH": 36655,
        "BSTAR": 9.1352e-05,
        "MEAN_MOTION_DOT": 1.56e-06,
        "MEAN_MOTION_DDOT": 0,
        "norad_id": 43689,
        "name": "METOP-C",
        "group": "weather",
        "longitude_deg": NaN,
        "latitude_deg": NaN,
        "alt_km": NaN,
        "orbit_class": "HEO",
        "timestamp": "2025-11-30T09:33:02.508315+00:00"
      },
      "geometry": {
        "type": "Point",
        "coordinates": [
          NaN,
          NaN
        ]
      }
    },
    {
      "type": "Feature",
      "properties": {
        "OBJECT_NAME": "GEO-KOMPSAT-2A",
        "OBJECT_ID": "2018-100A",
        "EPOCH": "2025-11-30T01:20:38.763744",
        "MEAN_MOTION": 1.00269857,
        "ECCENTRICITY": 5.99e-05,
        "INCLINATION": 0.0255,
        "RA_OF_ASC_NODE": 87.7203,
        "ARG_OF_PERICENTER": 109.3157,
        "MEAN_ANOMALY": 20.5628,
        "EPHEMERIS_TYPE": 0,
        "CLASSIFICATION_TYPE": "U",
        "NORAD_CAT_ID": 43823,
        "ELEMENT_SET_NO": 999,
        "REV_AT_EPOCH": 2563,
        "BSTAR": 0,
        "MEAN_MOTION_DOT": 0,
        "MEAN_MOTION_DDOT": 0,
        "norad_id": 43823,
        "name": "GEO-KOMPSAT-2A",
        "group": "weather",
        "longitude_deg": NaN,
        "latitude_deg": NaN,
        "alt_km": NaN,
        "orbit_class": "HEO",
        "timestamp": "2025-11-30T09:33:02.508669+00:00"
      },
      "geometry": {
        "type": "Point",
        "coordinates": [
          NaN,
          NaN
        ]
      }
    },
    {
      "type": "Feature",
      "properties": {
        "OBJECT_NAME": "METEOR-M2 2",
        "OBJECT_ID": "2019-038A",
        "EPOCH": "2025-11-30T05:34:32.703744",
        "MEAN_MOTION": 14.24282995,
        "ECCENTRICITY": 7.11e-05,
        "INCLINATION": 98.896,
        "RA_OF_ASC_NODE": 313.8089,
        "ARG_OF_PERICENTER": 174.5429,
        "MEAN_ANOMALY": 185.5757,
        "EPHEMERIS_TYPE": 0,
        "CLASSIFICATION_TYPE": "U",
        "NORAD_CAT_ID": 44387,
        "ELEMENT_SET_NO": 999,
        "REV_AT_EPOCH": 33297,
        "BSTAR": 0.00011501,
        "MEAN_MOTION_DOT": 2.2e-06,
        "MEAN_MOTION_DDOT": 0,
        "norad_id": 44387,
        "name": "METEOR-M2 2",
        "group": "weather",
        "longitude_deg": NaN,
        "latitude_deg": NaN,
        "alt_km": NaN,
        "orbit_class": "HEO",
        "timestamp": "2025-11-30T09:33:02.509224+00:00"
      },
      "geometry": {
        "type": "Point",
        "coordinates": [
          NaN,
          NaN
        ]
      }
    },
    {
      "type": "Feature",
      "properties": {
        "OBJECT_NAME": "ARKTIKA-M 1",
        "OBJECT_ID": "2021-016A",
        "EPOCH": "2025-11-26T03:03:52.773696",
        "MEAN_MOTION": 2.00612931,
        "ECCENTRICITY": 0.71946631,
        "INCLINATION": 63.1753,
        "RA_OF_ASC_NODE": 86.2841,
        "ARG_OF_PERICENTER": 269.0636,
        "MEAN_ANOMALY": 15.738,
        "EPHEMERIS_TYPE": 0,
        "CLASSIFICATION_TYPE": "U",
        "NORAD_CAT_ID": 47719,
        "ELEMENT_SET_NO": 999,
        "REV_AT_EPOCH": 3471,
        "BSTAR": 0,
        "MEAN_MOTION_DOT": -5e-08,
        "MEAN_MOTION_DDOT": 0,
        "norad_id": 47719,
        "name": "ARKTIKA-M 1",
        "group": "weather",
        "longitude_deg": NaN,
        "latitude_deg": NaN,
        "alt_km": NaN,
        "orbit_class": "HEO",
        "timestamp": "2025-11-30T09:33:02.514507+00:00"
      },
      "geometry": {
        "type": "Point",
        "coordinates": [
          NaN,
          NaN
        ]
      }
    },
    {
      "type": "Feature",
      "properties": {
        "OBJECT_NAME": "FENGYUN 3E",
        "OBJECT_ID": "2021-062A",
        "EPOCH": "2025-11-30T04:50:05.636832",
        "MEAN_MOTION": 14.19877343,
        "ECCENTRICITY": 9.2e-05,
        "INCLINATION": 98.7476,
        "RA_OF_ASC_NODE": 334.8713,
        "ARG_OF_PERICENTER": 340.7992,
        "MEAN_ANOMALY": 19.3149,
        "EPHEMERIS_TYPE": 0,
        "CLASSIFICATION_TYPE": "U",
        "NORAD_CAT_ID": 49008,
        "ELEMENT_SET_NO": 999,
        "REV_AT_EPOCH": 22834,
        "BSTAR": 4.32e-05,
        "MEAN_MOTION_DOT": 4.8e-07,
        "MEAN_MOTION_DDOT": 0,
        "norad_id": 49008,
        "name": "FENGYUN 3E",
        "group": "weather",
        "longitude_deg": NaN,
        "latitude_deg": NaN,
        "alt_km": NaN,
        "orbit_class": "HEO",
        "timestamp": "2025-11-30T09:33:02.518352+00:00"
      },
      "geometry": {
        "type": "Point",
        "coordinates": [
          NaN,
          NaN
        ]
      }
    },
    {
      "type": "Feature",
      "properties": {
        "OBJECT_NAME": "GOES 18",
        "OBJECT_ID": "2022-021A",
        "EPOCH": "2025-11-30T01:12:19.514304",
        "MEAN_MOTION": 1.00272488,
        "ECCENTRICITY": 7.38e-05,
        "INCLINATION": 0.0163,
        "RA_OF_ASC_NODE": 139.0233,
        "ARG_OF_PERICENTER": 151.3468,
        "MEAN_ANOMALY": 19.9124,
        "EPHEMERIS_TYPE": 0,
        "CLASSIFICATION_TYPE": "U",
        "NORAD_CAT_ID": 51850,
        "ELEMENT_SET_NO": 999,
        "REV_AT_EPOCH": 459,
        "BSTAR": 0,
        "MEAN_MOTION_DOT": 1.18e-06,
        "MEAN_MOTION_DDOT": 0,
        "norad_id": 51850,
        "name": "GOES 18",
        "group": "weather",
        "longitude_deg": NaN,
        "latitude_deg": NaN,
        "alt_km": NaN,
        "orbit_class": "HEO",
        "timestamp": "2025-11-30T09:33:02.522517+00:00"
      },
      "geometry": {
        "type": "Point",
        "coordinates": [
          NaN,
          NaN
        ]
      }
    }
  ]
}