GOES 17                 
1 43226U 18022A   25333.98834546 -.00000161  00000+0  00000+0 0  9990
2 43226   0.4235  89.4184 0003306 179.9649  66.0576  1.00270560 28421
FENGYUN 2H              
1 43491U 18050A   25334.02179902 -.00000108  00000+0  00000+0 0  9990
2 43491   2.5150  81.4715 0002741 159.6951 275.2002  1.00271970 27444
METOP-C                 
1 43689U 18087A   25334.15190172  .00000156  00000+0  91352-4 0  9992
2 43689  98.6948  32.1132 0001814  62.5735 297.5627 14.21504390366552
GEO-KOMPSAT-2A          
1 43823U 18100A   25334.05600421  .00000000  00000+0  00000+0 0  9993
2 43823   0.0255  87.7203 0000599 109.3157  20.5628  1.00269857 25637
METEOR-M2 2             
1 44387U 19038A   25334.23232296  .00000220  00000+0  11501-3 0  9997
2 44387  98.8960 313.8089 0000711 174.5429 185.5757 14.24282995332979
ARKTIKA-M 1             
1 47719U 21016A   25330.12769414 -.00000005  00000+0  00000+0 0  9999
2 47719  63.1753  86.2841 7194663 269.0636  15.7380  2.00612931 34715
FENGYUN 3E              
1 49008U 21062A   25334.20145413  .00000048  00000+0  43200-4 0  9993
2 49008  98.7476 334.8713 0000920 340.7992  19.3149 14.19877343228341
GOES 18                 
1 51850U 22021A   25334.05022586  .00000118  00000+0  00000+0 0  9999
2 51850   0.0163 139.0233 0000738 151.3468  19.9124  1.00272488  4594
